0 FENGYUN 1C DEB
1 31554U 99025BYV 13281.85771536  .00003112  00000-0  17328-2 0  4737
2 31554 099.0567 287.3764 0068171 172.6391 307.9859 14.10564326332141
0 FENGYUN 1C DEB
1 31554U 99025BYV 13284.25659843  .00003154  00000-0  17551-2 0  4745
2 31554 099.0571 289.7935 0068249 165.9695 249.5792 14.10576618332481
0 FENGYUN 1C DEB
1 31554U 99025BYV 13286.82365890  .00002542  00000-0  14192-2 0  4755
2 31554 099.0564 292.3802 0068355 158.7643 325.3746 14.10591563332845
0 FENGYUN 1C DEB
1 31554U 99025BYV 13289.22298760  .00003075  00000-0  17104-2 0  4762
2 31554 099.0554 294.7978 0068479 152.0984 269.4755 14.10606780333180
0 FENGYUN 1C DEB
1 31554U 99025BYV 13291.85867079  .00003269  00000-0  18166-2 0  4774
2 31554 099.0552 297.4526 0068549 144.8997 333.8319 14.10619914333554
0 FENGYUN 1C DEB
1 31554U 99025BYV 13294.48987036  .00003872  00000-0  21460-2 0  4784
2 31554 099.0562 300.1024 0068505 137.6554 015.6063 14.10635088333923
